{
  "type": "FeatureCollection",
  "features": [
    {
      "type": "Feature",
      "geometry": {
        "type": "Polygon",
        "coordinates": [
          [
            [
              121.0299265,
              14.6056594
            ],
            [
              121.0299918,
              14.6055318
            ],
            [
              121.0301383,
              14.6056054
            ],
            [
              121.0301084,
              14.6056599
            ],
            [
              121.0301982,
              14.6057041
            ],
            [
              121.0301619,
              14.6057711
            ],
            [
              121.0299265,
              14.6056594
            ]
          ]
        ]
      },
      "properties": {
        "fill": "rgba(228, 156, 56, 1)",
        "name": "CEDOC",
        "level": 1,
        "height": 0,
        "base_height": 0
      }
    },
    {
      "type": "Feature",
      "properties": {
        "name": "Outer Walls",
        "level": 1,
        "height": 2,
        "base_height": "0",
        "fill": "rgba(113, 113, 113, 1)"
      },
      "geometry": {
        "type": "Polygon",
        "coordinates": [
          [
            [
              121.029916,
              14.605661
            ],
            [
              121.030049,
              14.6054036
            ],
            [
              121.0304747,
              14.6056162
            ],
            [
              121.0303469,
              14.6058684
            ],
            [
              121.029923,
              14.6056647
            ],
            [
              121.029926,
              14.605659
            ],
            [
              121.0303436,
              14.6058575
            ],
            [
              121.0304638,
              14.6056205
            ],
            [
              121.0300527,
              14.6054168
            ],
            [
              121.0299233,
              14.6056649
            ],
            [
              121.029916,
              14.605661
            ]
          ]
        ]
      }
    },
    {
      "type": "Feature",
      "properties": {
        "fill": "rgba(131, 126, 122, 1)",
        "name": "Pantry",
        "level": 1,
        "height": 0,
        "base_height": 0
      },
      "geometry": {
        "type": "Polygon",
        "coordinates": [
          [
            [
              121.0300151,
              14.6054881
            ],
            [
              121.030053,
              14.6054164
            ],
            [
              121.0302,
              14.6054899
            ],
            [
              121.0301624,
              14.6055627
            ],
            [
              121.0300151,
              14.6054881
            ]
          ]
        ]
      }
    },
    {
      "type": "Feature",
      "properties": {
        "fill": "rgba(209, 97, 187, 1)",
        "name": "Conference Room",
        "level": 1,
        "height": 0,
        "base_height": 0
      },
      "geometry": {
        "type": "Polygon",
        "coordinates": [
          [
            [
              121.0301085,
              14.6056599
            ],
            [
              121.0301383,
              14.6056053
            ],
            [
              121.03022843874486,
              14.605649696402155
            ],
            [
              121.0301981,
              14.6057041
            ],
            [
              121.0301085,
              14.6056599
            ]
          ]
        ]
      }
    },
    {
      "type": "Feature",
      "properties": {
        "name": "Admin",
        "fill": "rgba(159, 7, 18, 1)",
        "level": 1,
        "height": "0",
        "base_height": 0
      },
      "geometry": {
        "type": "Polygon",
        "coordinates": [
          [
            [
              121.0301617,
              14.605563
            ],
            [
              121.0301999,
              14.6054901
            ],
            [
              121.0304017,
              14.6055894
            ],
            [
              121.0303614,
              14.6056592
            ],
            [
              121.0301617,
              14.605563
            ]
          ]
        ]
      }
    },
    {
      "type": "Feature",
      "properties": {
        "name": "Planning",
        "level": 1,
        "height": 0,
        "base_height": 0,
        "fill": "rgba(51, 49, 133, 1)"
      },
      "geometry": {
        "type": "Polygon",
        "coordinates": [
          [
            [
              121.0301993,
              14.6057887
            ],
            [
              121.0302363,
              14.6057213
            ],
            [
              121.0302832,
              14.6057436
            ],
            [
              121.0302448,
              14.6058107
            ],
            [
              121.0301993,
              14.6057887
            ]
          ]
        ]
      }
    },
    {
      "type": "Feature",
      "properties": {
        "name": "Operation",
        "fill": "rgba(29, 162, 8, 1)",
        "level": 1,
        "height": 0,
        "base_height": 0
      },
      "geometry": {
        "type": "Polygon",
        "coordinates": [
          [
            [
              121.0302366,
              14.6057214
            ],
            [
              121.0302667,
              14.6056683
            ],
            [
              121.0303484,
              14.6057084
            ],
            [
              121.0303191,
              14.6057611
            ],
            [
              121.0302832,
              14.6057436
            ],
            [
              121.0302366,
              14.6057214
            ]
          ]
        ]
      }
    },
    {
      "type": "Feature",
      "properties": {
        "name": "Living Quarters",
        "fill": "rgba(17, 17, 24, 1)",
        "level": 1,
        "height": 0,
        "base_height": 0
      },
      "geometry": {
        "type": "Polygon",
        "coordinates": [
          [
            [
              121.0302444,
              14.6058106
            ],
            [
              121.0302829994703,
              14.605743504468682
            ],
            [
              121.03031862143634,
              14.605760866716876
            ],
            [
              121.0303482293861,
              14.605708316259282
            ],
            [
              121.03040552698046,
              14.605735397717387
            ],
            [
              121.0303436,
              14.6058575
            ],
            [
              121.0302444,
              14.6058106
            ]
          ]
        ]
      }
    }
  ]
}