{
  "type": "FeatureCollection",
  "generator": "overpass-turbo",
  "copyright": "The data included in this document is from www.openstreetmap.org. The data is made available under ODbL.",
  "timestamp": "2026-03-02T05:41:29Z",
  "features": [
    {
      "type": "Feature",
      "properties": {
        "@id": "way/292193369",
        "name": "West Valley Faultline",
        "natural": "faultline",
        "source": "PHIVOLCS"
      },
      "geometry": {
        "type": "LineString",
        "coordinates": [
          [
            121.1437584,
            14.7758614
          ],
          [
            121.143484,
            14.7734658
          ],
          [
            121.1437956,
            14.7714795
          ],
          [
            121.1433798,
            14.7693103
          ],
          [
            121.1427507,
            14.7671656
          ],
          [
            121.1417175,
            14.7653376
          ],
          [
            121.1406056,
            14.7636058
          ],
          [
            121.1401366,
            14.7627708
          ],
          [
            121.1392895,
            14.7612625
          ],
          [
            121.138506,
            14.759529
          ],
          [
            121.1380351,
            14.7583442
          ]
        ]
      },
      "id": "way/292193369"
    },
    {
      "type": "Feature",
      "properties": {
        "@id": "way/292193370",
        "name": "West Valley Faultline",
        "natural": "faultline",
        "source": "PHIVOLCS"
      },
      "geometry": {
        "type": "LineString",
        "coordinates": [
          [
            121.0411259,
            14.33335
          ],
          [
            121.0408925,
            14.333121
          ],
          [
            121.0403621,
            14.3329359
          ],
          [
            121.0401023,
            14.3326346
          ],
          [
            121.0399964,
            14.3320547
          ],
          [
            121.0394696,
            14.3313265
          ],
          [
            121.0390676,
            14.3307324
          ],
          [
            121.0386785,
            14.33027
          ],
          [
            121.0384825,
            14.3298064
          ],
          [
            121.0383318,
            14.3293308
          ]
        ]
      },
      "id": "way/292193370"
    },
    {
      "type": "Feature",
      "properties": {
        "@id": "way/292193371",
        "name": "West Valley Faultline",
        "natural": "faultline",
        "source": "PHIVOLCS"
      },
      "geometry": {
        "type": "LineString",
        "coordinates": [
          [
            121.0541651,
            14.3778842
          ],
          [
            121.0536055,
            14.3770756
          ],
          [
            121.053064,
            14.3764427
          ],
          [
            121.052496,
            14.3759166
          ],
          [
            121.0526614,
            14.3752671
          ],
          [
            121.0521267,
            14.374706
          ],
          [
            121.0513039,
            14.3741565
          ],
          [
            121.0504682,
            14.3740184
          ],
          [
            121.0495052,
            14.3739012
          ],
          [
            121.0480877,
            14.3737494
          ]
        ]
      },
      "id": "way/292193371"
    },
    {
      "type": "Feature",
      "properties": {
        "@id": "way/292193372",
        "name": "West Valley Faultline",
        "natural": "faultline",
        "source": "PHIVOLCS"
      },
      "geometry": {
        "type": "LineString",
        "coordinates": [
          [
            121.0576987,
            14.5231528
          ],
          [
            121.0576244,
            14.5215465
          ],
          [
            121.0575047,
            14.5189565
          ],
          [
            121.0573308,
            14.5180582
          ],
          [
            121.0573771,
            14.5169159
          ],
          [
            121.0573409,
            14.5163115
          ],
          [
            121.0573009,
            14.5156425
          ],
          [
            121.0572999,
            14.5156264
          ],
          [
            121.0572856,
            14.5146924
          ],
          [
            121.0573823,
            14.5130661
          ],
          [
            121.0573446,
            14.5118144
          ],
          [
            121.0574266,
            14.5103196
          ],
          [
            121.0574015,
            14.5097467
          ]
        ]
      },
      "id": "way/292193372"
    },
    {
      "type": "Feature",
      "properties": {
        "@id": "way/292193373",
        "name": "West Valley Faultline",
        "natural": "faultline",
        "source": "PHIVOLCS"
      },
      "geometry": {
        "type": "LineString",
        "coordinates": [
          [
            121.0892845,
            14.6579257
          ],
          [
            121.0887961,
            14.6558211
          ],
          [
            121.0885796,
            14.6551622
          ],
          [
            121.0876405,
            14.6540418
          ],
          [
            121.0871895,
            14.6527499
          ],
          [
            121.086978,
            14.6512687
          ],
          [
            121.0868544,
            14.6499952
          ],
          [
            121.0872127,
            14.6488211
          ],
          [
            121.0870716,
            14.6472903
          ],
          [
            121.0869056,
            14.6459633
          ],
          [
            121.086367,
            14.6450112
          ],
          [
            121.0855478,
            14.6440074
          ],
          [
            121.0850584,
            14.6426296
          ],
          [
            121.0844618,
            14.6410381
          ],
          [
            121.0844537,
            14.641014
          ],
          [
            121.0843947,
            14.6408374
          ],
          [
            121.0837021,
            14.6387396
          ],
          [
            121.083059,
            14.6371944
          ],
          [
            121.0819266,
            14.6350322
          ],
          [
            121.0812395,
            14.6335027
          ],
          [
            121.0808125,
            14.6321185
          ],
          [
            121.0807749,
            14.6320504
          ],
          [
            121.0802474,
            14.631194
          ],
          [
            121.0795961,
            14.6291689
          ],
          [
            121.0792606,
            14.628423
          ],
          [
            121.0789453,
            14.6276754
          ],
          [
            121.0785659,
            14.6265526
          ],
          [
            121.0776674,
            14.6220622
          ],
          [
            121.0774517,
            14.6209976
          ],
          [
            121.0773609,
            14.619912
          ],
          [
            121.0770606,
            14.6193844
          ],
          [
            121.0766419,
            14.6155952
          ],
          [
            121.0766264,
            14.6153918
          ],
          [
            121.0764361,
            14.6131455
          ],
          [
            121.0761224,
            14.6113285
          ],
          [
            121.0756877,
            14.602457
          ],
          [
            121.0754845,
            14.601606
          ],
          [
            121.074691,
            14.599168
          ],
          [
            121.0745997,
            14.5981558
          ],
          [
            121.0745017,
            14.5975067
          ],
          [
            121.0742313,
            14.5969366
          ],
          [
            121.0739734,
            14.5960392
          ],
          [
            121.0738037,
            14.594241
          ],
          [
            121.0741307,
            14.5932297
          ],
          [
            121.0741432,
            14.5919389
          ],
          [
            121.0739571,
            14.5906487
          ],
          [
            121.0737921,
            14.5894676
          ],
          [
            121.0734724,
            14.5883906
          ],
          [
            121.0731312,
            14.5871128
          ],
          [
            121.07281,
            14.5857672
          ],
          [
            121.0723675,
            14.5843599
          ],
          [
            121.072273,
            14.5831278
          ],
          [
            121.0716748,
            14.5820204
          ],
          [
            121.0714528,
            14.5813496
          ],
          [
            121.0712806,
            14.5803073
          ],
          [
            121.0710357,
            14.5793101
          ],
          [
            121.0706681,
            14.5782101
          ],
          [
            121.0703387,
            14.5771084
          ],
          [
            121.0702083,
            14.5763117
          ],
          [
            121.0706572,
            14.5755422
          ],
          [
            121.0707776,
            14.574584
          ],
          [
            121.0708315,
            14.573891
          ],
          [
            121.070734,
            14.5731906
          ],
          [
            121.0707244,
            14.5731777
          ],
          [
            121.0703308,
            14.5719609
          ],
          [
            121.0702109,
            14.5710507
          ],
          [
            121.0702855,
            14.5701407
          ],
          [
            121.0697896,
            14.5694289
          ],
          [
            121.0695702,
            14.5687579
          ],
          [
            121.0696381,
            14.5679156
          ],
          [
            121.0700831,
            14.5672094
          ],
          [
            121.0704212,
            14.5664587
          ],
          [
            121.0706273,
            14.5653488
          ],
          [
            121.0705824,
            14.5642737
          ],
          [
            121.0699318,
            14.5637498
          ],
          [
            121.0693164,
            14.5631493
          ],
          [
            121.0682851,
            14.5617111
          ],
          [
            121.0674845,
            14.5595859
          ],
          [
            121.0674716,
            14.5595716
          ],
          [
            121.0666857,
            14.5580218
          ],
          [
            121.0653506,
            14.5550049
          ],
          [
            121.0648771,
            14.5538568
          ],
          [
            121.0646482,
            14.5534719
          ],
          [
            121.0645646,
            14.5530725
          ],
          [
            121.0644663,
            14.5526079
          ],
          [
            121.0644121,
            14.5523518
          ],
          [
            121.0643759,
            14.5518702
          ],
          [
            121.0643264,
            14.5512101
          ],
          [
            121.0643358,
            14.5506502
          ],
          [
            121.064228,
            14.5500258
          ],
          [
            121.0633484,
            14.5487386
          ],
          [
            121.0627269,
            14.5468635
          ],
          [
            121.0625901,
            14.5449039
          ],
          [
            121.0620203,
            14.5437898
          ],
          [
            121.0620058,
            14.5426526
          ],
          [
            121.0618974,
            14.5408886
          ],
          [
            121.0618912,
            14.5407873
          ],
          [
            121.0615128,
            14.5385497
          ],
          [
            121.0610474,
            14.5372039
          ],
          [
            121.0607536,
            14.5360621
          ],
          [
            121.0601426,
            14.5345171
          ],
          [
            121.0595652,
            14.5331207
          ],
          [
            121.0593696,
            14.5323875
          ],
          [
            121.0589831,
            14.5304317
          ],
          [
            121.0587239,
            14.5294473
          ],
          [
            121.058386,
            14.5287387
          ],
          [
            121.05812,
            14.5280366
          ]
        ]
      },
      "id": "way/292193373"
    },
    {
      "type": "Feature",
      "properties": {
        "@id": "way/292193374",
        "name": "West Valley Faultline",
        "natural": "faultline",
        "source": "PHIVOLCS"
      },
      "geometry": {
        "type": "LineString",
        "coordinates": [
          [
            121.046705,
            14.3894515
          ],
          [
            121.0462664,
            14.389056
          ],
          [
            121.0462833,
            14.3885343
          ],
          [
            121.0460913,
            14.3880435
          ],
          [
            121.0460566,
            14.387974
          ],
          [
            121.0457966,
            14.3874531
          ],
          [
            121.0455438,
            14.3864587
          ],
          [
            121.0454812,
            14.3856692
          ],
          [
            121.0454615,
            14.3856435
          ],
          [
            121.0451206,
            14.3845982
          ],
          [
            121.0448639,
            14.3838978
          ],
          [
            121.044651,
            14.3832572
          ],
          [
            121.044227,
            14.3824857
          ]
        ]
      },
      "id": "way/292193374"
    },
    {
      "type": "Feature",
      "properties": {
        "@id": "way/292193375",
        "name": "West Valley Faultline",
        "natural": "faultline",
        "source": "PHIVOLCS"
      },
      "geometry": {
        "type": "LineString",
        "coordinates": [
          [
            121.1519239,
            14.7686155
          ],
          [
            121.1507204,
            14.7680073
          ],
          [
            121.1503936,
            14.7677999
          ],
          [
            121.1485918,
            14.7671639
          ],
          [
            121.1478301,
            14.7667431
          ],
          [
            121.1467939,
            14.7661707
          ],
          [
            121.1463922,
            14.7661058
          ],
          [
            121.1457083,
            14.7657074
          ],
          [
            121.145684,
            14.7656933
          ],
          [
            121.1456321,
            14.765663
          ],
          [
            121.1452013,
            14.7654543
          ],
          [
            121.1446929,
            14.7650868
          ],
          [
            121.144309,
            14.7641562
          ]
        ]
      },
      "id": "way/292193375"
    },
    {
      "type": "Feature",
      "properties": {
        "@id": "way/292193376",
        "name": "West Valley Faultline",
        "natural": "faultline",
        "source": "PHIVOLCS"
      },
      "geometry": {
        "type": "LineString",
        "coordinates": [
          [
            121.0507881,
            14.3834439
          ],
          [
            121.0500659,
            14.3829318
          ],
          [
            121.0495385,
            14.3826553
          ],
          [
            121.048804,
            14.3823573
          ],
          [
            121.0480506,
            14.3817698
          ],
          [
            121.0473589,
            14.3808163
          ],
          [
            121.047074,
            14.3799304
          ],
          [
            121.0469713,
            14.3791709
          ],
          [
            121.0467119,
            14.3786192
          ],
          [
            121.0460665,
            14.3780152
          ],
          [
            121.0447041,
            14.3769903
          ],
          [
            121.0440305,
            14.3763575
          ],
          [
            121.0435106,
            14.3759622
          ],
          [
            121.043258,
            14.3756089
          ]
        ]
      },
      "id": "way/292193376"
    },
    {
      "type": "Feature",
      "properties": {
        "@id": "way/292193377",
        "name": "West Valley Faultline",
        "natural": "faultline",
        "source": "PHIVOLCS"
      },
      "geometry": {
        "type": "LineString",
        "coordinates": [
          [
            121.0514017,
            14.4448363
          ],
          [
            121.0512374,
            14.444427
          ],
          [
            121.0507781,
            14.4432833
          ],
          [
            121.0505929,
            14.4416976
          ],
          [
            121.0505896,
            14.4416276
          ],
          [
            121.0496522,
            14.4399715
          ],
          [
            121.0492261,
            14.4387714
          ],
          [
            121.049043,
            14.4380526
          ],
          [
            121.0490159,
            14.4380201
          ],
          [
            121.04824,
            14.4367729
          ],
          [
            121.0470234,
            14.4350523
          ],
          [
            121.0454999,
            14.4337601
          ],
          [
            121.0441481,
            14.4328162
          ],
          [
            121.043168,
            14.4323411
          ],
          [
            121.0421377,
            14.4321386
          ]
        ]
      },
      "id": "way/292193377"
    },
    {
      "type": "Feature",
      "properties": {
        "@id": "way/292193378",
        "name": "West Valley Faultline",
        "natural": "faultline",
        "source": "PHIVOLCS"
      },
      "geometry": {
        "type": "LineString",
        "coordinates": [
          [
            121.0456054,
            14.3760162
          ],
          [
            121.0447084,
            14.3753862
          ],
          [
            121.0435773,
            14.3745149
          ],
          [
            121.0435399,
            14.3727526
          ],
          [
            121.0436438,
            14.3719485
          ],
          [
            121.0440018,
            14.3711171
          ],
          [
            121.0440306,
            14.3710512
          ],
          [
            121.0441475,
            14.3700806
          ],
          [
            121.0441168,
            14.3699959
          ],
          [
            121.0440885,
            14.3698906
          ],
          [
            121.0440756,
            14.3698277
          ],
          [
            121.0436707,
            14.3685861
          ],
          [
            121.0434435,
            14.367029
          ],
          [
            121.0430692,
            14.3658257
          ],
          [
            121.042292,
            14.364809
          ],
          [
            121.0415475,
            14.3635094
          ],
          [
            121.0415487,
            14.3634887
          ],
          [
            121.0412857,
            14.3622036
          ]
        ]
      },
      "id": "way/292193378"
    },
    {
      "type": "Feature",
      "properties": {
        "@id": "way/292193379",
        "name": "West Valley Faultline",
        "natural": "faultline",
        "source": "PHIVOLCS"
      },
      "geometry": {
        "type": "LineString",
        "coordinates": [
          [
            121.0523166,
            14.3817183
          ],
          [
            121.0517528,
            14.3796809
          ]
        ]
      },
      "id": "way/292193379"
    },
    {
      "type": "Feature",
      "properties": {
        "@id": "way/292193380",
        "name": "West Valley Faultline",
        "natural": "faultline",
        "source": "PHIVOLCS"
      },
      "geometry": {
        "type": "LineString",
        "coordinates": [
          [
            121.1070443,
            14.6966283
          ],
          [
            121.1067796,
            14.6959454
          ],
          [
            121.1067273,
            14.69502
          ],
          [
            121.1067283,
            14.6949888
          ],
          [
            121.1067554,
            14.6934631
          ],
          [
            121.1067816,
            14.6927322
          ],
          [
            121.1069223,
            14.6920699
          ],
          [
            121.1067433,
            14.691556
          ],
          [
            121.1066397,
            14.6911522
          ],
          [
            121.1064544,
            14.6905823
          ],
          [
            121.1062981,
            14.6900473
          ],
          [
            121.106089,
            14.6896609
          ],
          [
            121.1057372,
            14.6890155
          ],
          [
            121.105561,
            14.6884834
          ],
          [
            121.1048178,
            14.6877011
          ],
          [
            121.1042342,
            14.6866578
          ],
          [
            121.1036384,
            14.6853132
          ],
          [
            121.1034322,
            14.6848357
          ],
          [
            121.1034859,
            14.684763
          ],
          [
            121.1034461,
            14.6846535
          ],
          [
            121.1030766,
            14.6837803
          ],
          [
            121.1024442,
            14.681778
          ],
          [
            121.1019643,
            14.6803231
          ],
          [
            121.1019662,
            14.6802643
          ],
          [
            121.1018897,
            14.6800222
          ],
          [
            121.101547,
            14.6789018
          ],
          [
            121.1013298,
            14.6779683
          ],
          [
            121.1013917,
            14.6759529
          ]
        ]
      },
      "id": "way/292193380"
    },
    {
      "type": "Feature",
      "properties": {
        "@id": "way/292193381",
        "name": "West Valley Faultline",
        "natural": "faultline",
        "source": "PHIVOLCS"
      },
      "geometry": {
        "type": "LineString",
        "coordinates": [
          [
            121.051189,
            14.4297774
          ],
          [
            121.0507795,
            14.429104
          ],
          [
            121.0497301,
            14.4285462
          ]
        ]
      },
      "id": "way/292193381"
    },
    {
      "type": "Feature",
      "properties": {
        "@id": "way/292193382",
        "name": "West Valley Faultline",
        "natural": "faultline",
        "source": "PHIVOLCS"
      },
      "geometry": {
        "type": "LineString",
        "coordinates": [
          [
            121.0494562,
            14.4328822
          ],
          [
            121.0486595,
            14.4322396
          ],
          [
            121.0484334,
            14.4312717
          ]
        ]
      },
      "id": "way/292193382"
    },
    {
      "type": "Feature",
      "properties": {
        "@id": "way/292193383",
        "name": "West Valley Faultline",
        "natural": "faultline",
        "source": "PHIVOLCS"
      },
      "geometry": {
        "type": "LineString",
        "coordinates": [
          [
            121.1419272,
            14.7970951
          ],
          [
            121.1415361,
            14.794891
          ],
          [
            121.1414338,
            14.7929039
          ],
          [
            121.1414723,
            14.7927604
          ],
          [
            121.1416797,
            14.7906972
          ],
          [
            121.1419363,
            14.7891814
          ],
          [
            121.14199,
            14.7874753
          ],
          [
            121.141831,
            14.7860611
          ],
          [
            121.1418274,
            14.7859631
          ],
          [
            121.1414049,
            14.7841037
          ],
          [
            121.1413417,
            14.7838646
          ],
          [
            121.1408322,
            14.7818567
          ],
          [
            121.1408646,
            14.7803042
          ],
          [
            121.1408398,
            14.779082
          ],
          [
            121.1408205,
            14.7780251
          ],
          [
            121.1404401,
            14.7766526
          ],
          [
            121.1401739,
            14.7754456
          ],
          [
            121.1401721,
            14.775343
          ],
          [
            121.140003,
            14.7738394
          ],
          [
            121.1399695,
            14.7738074
          ],
          [
            121.1396202,
            14.7721883
          ],
          [
            121.1396154,
            14.7721261
          ],
          [
            121.1394,
            14.7712447
          ],
          [
            121.1393653,
            14.7712146
          ],
          [
            121.1390616,
            14.7701968
          ],
          [
            121.1390287,
            14.7701986
          ],
          [
            121.1389127,
            14.76799
          ],
          [
            121.1389113,
            14.7679582
          ],
          [
            121.1387763,
            14.7664116
          ],
          [
            121.138772,
            14.766317
          ],
          [
            121.1390339,
            14.7647871
          ],
          [
            121.1390925,
            14.7646264
          ],
          [
            121.1390886,
            14.7645323
          ],
          [
            121.1392151,
            14.7634262
          ],
          [
            121.1391551,
            14.7625656
          ],
          [
            121.1391424,
            14.7622456
          ],
          [
            121.1391367,
            14.7622215
          ],
          [
            121.138506,
            14.759529
          ]
        ]
      },
      "id": "way/292193383"
    },
    {
      "type": "Feature",
      "properties": {
        "@id": "way/292193384",
        "name": "West Valley Faultline",
        "natural": "faultline",
        "source": "PHIVOLCS"
      },
      "geometry": {
        "type": "LineString",
        "coordinates": [
          [
            121.0371375,
            14.3446973
          ],
          [
            121.0375458,
            14.3412717
          ],
          [
            121.0375205,
            14.3395792
          ],
          [
            121.0376439,
            14.3346948
          ]
        ]
      },
      "id": "way/292193384"
    },
    {
      "type": "Feature",
      "properties": {
        "@id": "way/292193385",
        "name": "West Valley Faultline",
        "natural": "faultline",
        "source": "PHIVOLCS"
      },
      "geometry": {
        "type": "LineString",
        "coordinates": [
          [
            121.0513189,
            14.3974388
          ],
          [
            121.0502908,
            14.3965146
          ],
          [
            121.0495228,
            14.395773
          ],
          [
            121.0492315,
            14.3954917
          ],
          [
            121.0479071,
            14.3941616
          ]
        ]
      },
      "id": "way/292193385"
    },
    {
      "type": "Feature",
      "properties": {
        "@id": "way/292193387",
        "name": "West Valley Faultline",
        "natural": "faultline",
        "source": "PHIVOLCS"
      },
      "geometry": {
        "type": "LineString",
        "coordinates": [
          [
            121.0386328,
            14.3336678
          ],
          [
            121.0386785,
            14.33027
          ],
          [
            121.038581,
            14.3268488
          ],
          [
            121.0387744,
            14.3251349
          ]
        ]
      },
      "id": "way/292193387"
    },
    {
      "type": "Feature",
      "properties": {
        "@id": "way/292193388",
        "name": "West Valley Faultline",
        "natural": "faultline",
        "source": "PHIVOLCS"
      },
      "geometry": {
        "type": "LineString",
        "coordinates": [
          [
            121.0508969,
            14.4098231
          ],
          [
            121.0499404,
            14.4089262
          ],
          [
            121.0494832,
            14.4080527
          ],
          [
            121.0490925,
            14.4057105
          ]
        ]
      },
      "id": "way/292193388"
    },
    {
      "type": "Feature",
      "properties": {
        "@id": "way/292193389",
        "name": "West Valley Faultline",
        "natural": "faultline",
        "source": "PHIVOLCS"
      },
      "geometry": {
        "type": "LineString",
        "coordinates": [
          [
            121.033928,
            14.3112438
          ],
          [
            121.0336213,
            14.3104224
          ],
          [
            121.0335348,
            14.3101908
          ],
          [
            121.0333943,
            14.3098146
          ],
          [
            121.0330779,
            14.3090359
          ],
          [
            121.0329223,
            14.3086529
          ],
          [
            121.0324824,
            14.3075703
          ],
          [
            121.0324011,
            14.3073352
          ],
          [
            121.0322078,
            14.3065571
          ]
        ]
      },
      "id": "way/292193389"
    },
    {
      "type": "Feature",
      "properties": {
        "@id": "way/292193390",
        "name": "West Valley Faultline",
        "natural": "faultline",
        "source": "PHIVOLCS"
      },
      "geometry": {
        "type": "LineString",
        "coordinates": [
          [
            121.1035879,
            14.6895831
          ],
          [
            121.1032159,
            14.6889058
          ],
          [
            121.1029505,
            14.6883866
          ],
          [
            121.1025354,
            14.6877417
          ],
          [
            121.1022687,
            14.6871281
          ],
          [
            121.1032419,
            14.6877568
          ],
          [
            121.1026948,
            14.6866179
          ],
          [
            121.1023034,
            14.6858702
          ],
          [
            121.1020215,
            14.6853384
          ],
          [
            121.1018539,
            14.6849908
          ],
          [
            121.1018418,
            14.684849
          ],
          [
            121.1016224,
            14.6839623
          ],
          [
            121.1009626,
            14.6827337
          ],
          [
            121.1006115,
            14.6815226
          ],
          [
            121.1005904,
            14.6814575
          ],
          [
            121.1003992,
            14.6808021
          ],
          [
            121.1003894,
            14.6792516
          ],
          [
            121.1000491,
            14.6777623
          ],
          [
            121.0998396,
            14.6773853
          ],
          [
            121.099744,
            14.6772763
          ],
          [
            121.0997162,
            14.6770647
          ],
          [
            121.0993334,
            14.676165
          ],
          [
            121.0993238,
            14.6759215
          ],
          [
            121.0990922,
            14.6780159
          ],
          [
            121.0984579,
            14.6771751
          ],
          [
            121.0977322,
            14.6754421
          ],
          [
            121.0972921,
            14.6747535
          ],
          [
            121.0965291,
            14.6733669
          ],
          [
            121.0965304,
            14.6733342
          ],
          [
            121.0962006,
            14.67195
          ],
          [
            121.0962022,
            14.6719181
          ],
          [
            121.09596,
            14.6708839
          ],
          [
            121.0959634,
            14.6708078
          ],
          [
            121.0959365,
            14.6707311
          ],
          [
            121.0955043,
            14.669831
          ],
          [
            121.0954765,
            14.6698004
          ],
          [
            121.0952227,
            14.6691295
          ],
          [
            121.0950886,
            14.6682234
          ],
          [
            121.0950912,
            14.6681809
          ],
          [
            121.0948828,
            14.6675023
          ],
          [
            121.0948564,
            14.6674743
          ],
          [
            121.0942313,
            14.6663396
          ],
          [
            121.0939037,
            14.6651818
          ],
          [
            121.0934084,
            14.6637397
          ],
          [
            121.0933666,
            14.663672
          ],
          [
            121.0929093,
            14.6625108
          ],
          [
            121.0926945,
            14.6615478
          ],
          [
            121.0924356,
            14.6605338
          ],
          [
            121.0920408,
            14.6595922
          ],
          [
            121.0915886,
            14.6573799
          ],
          [
            121.0911546,
            14.6560369
          ]
        ]
      },
      "id": "way/292193390"
    },
    {
      "type": "Feature",
      "properties": {
        "@id": "way/292193391",
        "name": "West Valley Faultline",
        "natural": "faultline",
        "source": "PHIVOLCS"
      },
      "geometry": {
        "type": "LineString",
        "coordinates": [
          [
            121.0385003,
            14.3730713
          ],
          [
            121.0383778,
            14.3717911
          ],
          [
            121.0386464,
            14.3706068
          ],
          [
            121.0390792,
            14.3697409
          ],
          [
            121.0395587,
            14.3690228
          ],
          [
            121.0397745,
            14.3654999
          ]
        ]
      },
      "id": "way/292193391"
    },
    {
      "type": "Feature",
      "properties": {
        "@id": "way/292193392",
        "name": "West Valley Faultline",
        "natural": "faultline",
        "source": "PHIVOLCS"
      },
      "geometry": {
        "type": "LineString",
        "coordinates": [
          [
            121.0482151,
            14.4007882
          ],
          [
            121.0471385,
            14.3997554
          ],
          [
            121.0462975,
            14.3984579
          ],
          [
            121.0457603,
            14.3975172
          ],
          [
            121.0456361,
            14.3972998
          ],
          [
            121.0454381,
            14.3969531
          ],
          [
            121.0441796,
            14.395749
          ],
          [
            121.0435836,
            14.3945739
          ],
          [
            121.0433346,
            14.3940492
          ],
          [
            121.0433049,
            14.3939867
          ],
          [
            121.0432163,
            14.3938
          ],
          [
            121.0427561,
            14.3928302
          ]
        ]
      },
      "id": "way/292193392"
    },
    {
      "type": "Feature",
      "properties": {
        "@id": "way/292193393",
        "name": "West Valley Faultline",
        "natural": "faultline",
        "source": "PHIVOLCS"
      },
      "geometry": {
        "type": "LineString",
        "coordinates": [
          [
            121.0339769,
            14.3231743
          ],
          [
            121.0340875,
            14.3228031
          ],
          [
            121.0342986,
            14.3220947
          ],
          [
            121.0345998,
            14.3210837
          ],
          [
            121.0352644,
            14.320078
          ],
          [
            121.0356842,
            14.3194953
          ],
          [
            121.0363722,
            14.3172124
          ],
          [
            121.0371728,
            14.3149652
          ],
          [
            121.037549,
            14.3138362
          ]
        ]
      },
      "id": "way/292193393"
    },
    {
      "type": "Feature",
      "properties": {
        "@id": "way/292193394",
        "name": "West Valley Faultline",
        "natural": "faultline",
        "source": "PHIVOLCS"
      },
      "geometry": {
        "type": "LineString",
        "coordinates": [
          [
            121.0357671,
            14.311609
          ],
          [
            121.0364087,
            14.3093481
          ],
          [
            121.0363149,
            14.3066899
          ],
          [
            121.0362787,
            14.3047309
          ],
          [
            121.0353648,
            14.3031816
          ],
          [
            121.0353499,
            14.3014201
          ],
          [
            121.0352415,
            14.3003455
          ]
        ]
      },
      "id": "way/292193394"
    },
    {
      "type": "Feature",
      "properties": {
        "@id": "way/292193395",
        "name": "West Valley Faultline",
        "natural": "faultline",
        "source": "PHIVOLCS"
      },
      "geometry": {
        "type": "LineString",
        "coordinates": [
          [
            121.0896433,
            14.6594945
          ],
          [
            121.0898094,
            14.6578962
          ],
          [
            121.0895325,
            14.6561397
          ],
          [
            121.0890536,
            14.6540498
          ],
          [
            121.0886919,
            14.652995
          ],
          [
            121.0880849,
            14.6527504
          ],
          [
            121.086978,
            14.6512687
          ]
        ]
      },
      "id": "way/292193395"
    },
    {
      "type": "Feature",
      "properties": {
        "@id": "way/292193396",
        "name": "West Valley Faultline",
        "natural": "faultline",
        "source": "PHIVOLCS"
      },
      "geometry": {
        "type": "LineString",
        "coordinates": [
          [
            121.045961,
            14.340199
          ],
          [
            121.0451196,
            14.3390092
          ],
          [
            121.0446354,
            14.3383946
          ],
          [
            121.0441213,
            14.3378204
          ],
          [
            121.0433056,
            14.3369966
          ],
          [
            121.0427388,
            14.3360417
          ],
          [
            121.0424883,
            14.3352552
          ],
          [
            121.0419276,
            14.3337926
          ]
        ]
      },
      "id": "way/292193396"
    },
    {
      "type": "Feature",
      "properties": {
        "@id": "way/292193397",
        "name": "West Valley Faultline",
        "natural": "faultline",
        "source": "PHIVOLCS"
      },
      "geometry": {
        "type": "LineString",
        "coordinates": [
          [
            121.0355714,
            14.3206989
          ],
          [
            121.0352644,
            14.320078
          ],
          [
            121.0349464,
            14.3193395
          ],
          [
            121.0343568,
            14.3163416
          ],
          [
            121.0329537,
            14.3141208
          ],
          [
            121.032867,
            14.314022
          ],
          [
            121.0316841,
            14.312925
          ],
          [
            121.0312312,
            14.3120933
          ]
        ]
      },
      "id": "way/292193397"
    },
    {
      "type": "Feature",
      "properties": {
        "@id": "way/292193398",
        "name": "West Valley Faultline",
        "natural": "faultline",
        "source": "PHIVOLCS"
      },
      "geometry": {
        "type": "LineString",
        "coordinates": [
          [
            121.1081795,
            14.6940015
          ],
          [
            121.1076495,
            14.6927075
          ],
          [
            121.1072963,
            14.6919821
          ],
          [
            121.1069672,
            14.6910738
          ],
          [
            121.1068958,
            14.6905369
          ],
          [
            121.1067843,
            14.6902003
          ],
          [
            121.1066497,
            14.6899008
          ],
          [
            121.1065239,
            14.689431
          ]
        ]
      },
      "id": "way/292193398"
    },
    {
      "type": "Feature",
      "properties": {
        "@id": "way/292193399",
        "name": "West Valley Faultline",
        "natural": "faultline",
        "source": "PHIVOLCS"
      },
      "geometry": {
        "type": "LineString",
        "coordinates": [
          [
            121.0491657,
            14.3873032
          ],
          [
            121.0493057,
            14.3866
          ],
          [
            121.0491451,
            14.3860848
          ],
          [
            121.0488505,
            14.3856283
          ],
          [
            121.048788,
            14.3855277
          ],
          [
            121.0484123,
            14.3850278
          ],
          [
            121.0480144,
            14.3846331
          ],
          [
            121.0477641,
            14.38405
          ]
        ]
      },
      "id": "way/292193399"
    },
    {
      "type": "Feature",
      "properties": {
        "@id": "way/292193400",
        "name": "West Valley Faultline",
        "natural": "faultline",
        "source": "PHIVOLCS"
      },
      "geometry": {
        "type": "LineString",
        "coordinates": [
          [
            121.144309,
            14.7641562
          ],
          [
            121.1437242,
            14.7637602
          ],
          [
            121.1432198,
            14.7634848
          ],
          [
            121.1427277,
            14.7631497
          ],
          [
            121.1423784,
            14.7628754
          ],
          [
            121.1420681,
            14.7626451
          ],
          [
            121.1417456,
            14.7622756
          ],
          [
            121.1412386,
            14.7617541
          ],
          [
            121.1409474,
            14.7612663
          ],
          [
            121.1405489,
            14.7608619
          ],
          [
            121.1402624,
            14.7606016
          ],
          [
            121.1401872,
            14.7604664
          ],
          [
            121.1394319,
            14.759751
          ],
          [
            121.1387953,
            14.759038
          ],
          [
            121.1379871,
            14.7580252
          ],
          [
            121.1377944,
            14.7577917
          ],
          [
            121.1376589,
            14.7572974
          ],
          [
            121.1375231,
            14.7568021
          ],
          [
            121.1374786,
            14.7566398
          ],
          [
            121.1374035,
            14.7565165
          ],
          [
            121.136974,
            14.7557859
          ],
          [
            121.1367644,
            14.7553577
          ],
          [
            121.1366787,
            14.7551827
          ],
          [
            121.136549,
            14.7544506
          ],
          [
            121.1362259,
            14.7539246
          ],
          [
            121.1355692,
            14.7520925
          ],
          [
            121.1354391,
            14.7517094
          ],
          [
            121.135226,
            14.7513485
          ],
          [
            121.1350955,
            14.7511815
          ],
          [
            121.1348003,
            14.7507502
          ],
          [
            121.1335967,
            14.749205
          ],
          [
            121.1332509,
            14.7487312
          ],
          [
            121.1330952,
            14.7483441
          ],
          [
            121.1329597,
            14.7480485
          ],
          [
            121.132152,
            14.7462857
          ],
          [
            121.1320888,
            14.7461479
          ],
          [
            121.1315535,
            14.7449823
          ],
          [
            121.1315958,
            14.744706
          ],
          [
            121.131497,
            14.744543
          ],
          [
            121.1314445,
            14.7444661
          ],
          [
            121.1314235,
            14.7444345
          ],
          [
            121.130557,
            14.7443548
          ],
          [
            121.1293012,
            14.74231
          ],
          [
            121.1276201,
            14.7394374
          ],
          [
            121.1269838,
            14.7383683
          ],
          [
            121.1264063,
            14.7365279
          ],
          [
            121.1259155,
            14.73508
          ],
          [
            121.1257119,
            14.7344119
          ],
          [
            121.1250843,
            14.732353
          ],
          [
            121.1249841,
            14.7320358
          ],
          [
            121.1238507,
            14.7297301
          ],
          [
            121.1233126,
            14.7288734
          ],
          [
            121.1222746,
            14.727221
          ],
          [
            121.1216632,
            14.7261375
          ],
          [
            121.1214847,
            14.7257924
          ],
          [
            121.1207628,
            14.7241423
          ],
          [
            121.120504,
            14.7237598
          ],
          [
            121.1204272,
            14.7229555
          ],
          [
            121.119058,
            14.7197359
          ],
          [
            121.1191609,
            14.7193078
          ],
          [
            121.1187767,
            14.7180742
          ],
          [
            121.1179346,
            14.7162307
          ],
          [
            121.1173911,
            14.7151494
          ],
          [
            121.1166882,
            14.7134848
          ],
          [
            121.1160142,
            14.7119596
          ],
          [
            121.1154545,
            14.7108598
          ],
          [
            121.1149864,
            14.7099545
          ],
          [
            121.1145703,
            14.7090526
          ],
          [
            121.1137751,
            14.708011
          ],
          [
            121.1134899,
            14.7078455
          ],
          [
            121.1132047,
            14.7075161
          ],
          [
            121.1129906,
            14.707256
          ],
          [
            121.1128654,
            14.7069228
          ],
          [
            121.1130441,
            14.7066825
          ],
          [
            121.1133075,
            14.7068923
          ],
          [
            121.1135638,
            14.7073141
          ],
          [
            121.1137581,
            14.7075465
          ],
          [
            121.11376,
            14.7072801
          ],
          [
            121.1136144,
            14.706931
          ],
          [
            121.1133164,
            14.7064784
          ],
          [
            121.1127017,
            14.7058175
          ],
          [
            121.1113271,
            14.7040044
          ],
          [
            121.1103935,
            14.7027688
          ],
          [
            121.10974,
            14.7019128
          ],
          [
            121.1091934,
            14.7008182
          ],
          [
            121.1086393,
            14.6995741
          ],
          [
            121.108364,
            14.6991907
          ],
          [
            121.1080105,
            14.6987086
          ],
          [
            121.1078382,
            14.698252
          ],
          [
            121.1076866,
            14.6977385
          ],
          [
            121.1077013,
            14.697035
          ],
          [
            121.1077323,
            14.6964507
          ],
          [
            121.1077735,
            14.6958702
          ],
          [
            121.1077815,
            14.6949805
          ],
          [
            121.1076751,
            14.694141
          ],
          [
            121.1074754,
            14.6933586
          ],
          [
            121.1071533,
            14.6928115
          ],
          [
            121.1069223,
            14.6920699
          ]
        ]
      },
      "id": "way/292193400"
    },
    {
      "type": "Feature",
      "properties": {
        "@id": "way/830384195",
        "name": "West Valley Faultline",
        "natural": "faultline",
        "source": "PHIVOLCS"
      },
      "geometry": {
        "type": "LineString",
        "coordinates": [
          [
            121.05812,
            14.5280366
          ],
          [
            121.0578339,
            14.5274389
          ],
          [
            121.0573836,
            14.5256905
          ],
          [
            121.057031,
            14.5246708
          ],
          [
            121.0565982,
            14.5232905
          ],
          [
            121.0566054,
            14.5221769
          ],
          [
            121.0565862,
            14.5208973
          ],
          [
            121.0566473,
            14.5197305
          ],
          [
            121.0567854,
            14.5187628
          ],
          [
            121.0569023,
            14.5173166
          ]
        ]
      },
      "id": "way/830384195"
    }
  ]
}